{"type":"FeatureCollection", "features": [
{"type":"Feature","geometry":{"type":"MultiLineString","coordinates":[[[-73.430995,43.589128],[-73.424976,43.598774],[-73.421615,43.603022],[-73.423708,43.612356],[-73.417827,43.620585],[-73.418319,43.623324],[-73.427909,43.634427],[-73.428504,43.636816],[-73.426462,43.642598],[-73.423138,43.645893],[-73.418395,43.648283],[-73.415188,43.653466],[-73.415092,43.656709],[-73.408061,43.669437],[-73.407273,43.674002],[-73.403509,43.683976],[-73.405242,43.688367],[-73.4029,43.692494],[-73.396306,43.696041],[-73.393722,43.699199],[-73.391789,43.703479],[-73.388638,43.706653],[-73.385492,43.711754],[-73.377755,43.717711],[-73.370611,43.725327],[-73.369915,43.728787],[-73.370723,43.735568],[-73.369943,43.743853],[-73.365943,43.749736],[-73.362822,43.753082],[-73.351264,43.769821],[-73.350997,43.772432],[-73.355361,43.777925],[-73.35752,43.785555],[-73.362212,43.789953],[-73.370994,43.79513],[-73.376792,43.799156],[-73.37789,43.80488],[-73.3796,43.809199],[-73.382056,43.812214],[-73.391013,43.818409],[-73.392798,43.822769],[-73.389296,43.831233],[-73.385001,43.835341],[-73.377792,43.838714],[-73.375571,43.840542],[-73.372588,43.845352],[-73.373626,43.847519],[-73.380248,43.851921],[-73.382003,43.854111],[-73.382184,43.857017],[-73.379087,43.865185],[-73.374098,43.875302],[-73.374492,43.876954],[-73.383692,43.891282],[-73.396177,43.903262],[-73.402362,43.919904],[-73.407132,43.928184],[-73.408857,43.934503],[-73.407446,43.942478],[-73.405644,43.948067],[-73.405734,43.95593],[-73.407067,43.96817],[-73.412046,43.977602],[-73.412508,43.982214],[-73.409055,43.99601],[-73.408803,44.000677],[-73.406007,44.011415],[-73.406119,44.016369],[-73.407643,44.021109],[-73.410383,44.026501],[-73.414057,44.029307],[-73.423249,44.032821],[-73.419938,44.039217],[-73.422068,44.041298],[-73.422728,44.045867],[-73.424091,44.047493],[-73.419684,44.052568],[-73.416557,44.052543],[-73.417628,44.05678],[-73.415413,44.058942],[-73.415265,44.06224],[-73.412154,44.064024],[-73.412236,44.067582],[-73.415812,44.072443],[-73.413522,44.080029],[-73.409247,44.080667],[-73.408925,44.084547],[-73.406055,44.084475],[-73.403526,44.086592],[-73.400915,44.086866],[-73.396337,44.091488],[-73.389734,44.092768],[-73.387297,44.095081],[-73.389222,44.105275],[-73.386975,44.113558],[-73.38278,44.117563],[-73.378767,44.118862],[-73.378873,44.120155],[-73.372643,44.129335],[-73.369549,44.130597],[-73.368473,44.134156],[-73.366229,44.136491],[-73.36559,44.139697],[-73.368791,44.142299],[-73.370346,44.141543],[-73.370835,44.146528],[-73.368087,44.145697],[-73.36527,44.146932],[-73.367362,44.14994],[-73.363031,44.154587],[-73.360068,44.163471],[-73.35549,44.167506],[-73.351881,44.17313],[-73.351073,44.176909],[-73.357771,44.180548],[-73.364627,44.182146],[-73.368424,44.181592],[-73.370454,44.17815],[-73.370139,44.181616],[-73.371423,44.186469],[-73.370444,44.192348],[-73.362396,44.199751],[-73.357817,44.1988],[-73.35601,44.20362],[-73.353094,44.205356],[-73.353032,44.207548],[-73.350158,44.211868],[-73.345915,44.21259],[-73.346034,44.213695],[-73.337485,44.217149],[-73.333083,44.21962],[-73.332581,44.217325],[-73.326788,44.217776],[-73.325643,44.216805],[-73.317799,44.218828],[-73.317998,44.221735],[-73.320685,44.223957],[-73.325152,44.224145],[-73.324213,44.226299],[-73.326702,44.22681],[-73.324024,44.228603],[-73.320486,44.227992],[-73.322116,44.226369],[-73.31501,44.224671],[-73.313452,44.227272],[-73.313444,44.230266],[-73.318078,44.231027],[-73.318269,44.233177],[-73.316528,44.237972],[-73.312204,44.236374],[-73.310264,44.238168],[-73.308029,44.237685],[-73.307162,44.241813],[-73.302416,44.24195],[-73.302893,44.238496],[-73.300461,44.234746],[-73.298171,44.238308],[-73.296422,44.237274],[-73.295101,44.239257],[-73.299131,44.242923],[-73.299528,44.245315],[-73.288208,44.240608],[-73.288366,44.241772],[-73.281679,44.243243],[-73.280838,44.240196],[-73.28131,44.235058],[-73.27972,44.235268],[-73.280065,44.230106],[-73.277608,44.229583],[-73.275604,44.22693],[-73.274877,44.231664],[-73.265308,44.227099],[-73.261629,44.226609],[-73.254587,44.22999],[-73.257998,44.229524],[-73.260703,44.227364],[-73.267664,44.229536],[-73.275108,44.236981],[-73.27544,44.239984],[-73.272148,44.239354],[-73.272528,44.242272],[-73.276439,44.242642],[-73.277576,44.244032],[-73.269448,44.245818],[-73.268179,44.24141],[-73.264683,44.239538],[-73.261977,44.242648],[-73.26608,44.242368],[-73.26548,44.247131],[-73.274384,44.248535],[-73.280335,44.251505],[-73.2831,44.255751],[-73.281016,44.255661],[-73.280047,44.253036],[-73.276762,44.255377],[-73.27723,44.257099],[-73.273762,44.257654],[-73.269835,44.255979],[-73.268235,44.25848],[-73.271874,44.262564],[-73.270942,44.264449],[-73.265086,44.267467],[-73.263578,44.273165],[-73.268147,44.268683],[-73.272552,44.271771],[-73.278176,44.271657],[-73.278533,44.274697],[-73.283575,44.275529],[-73.289718,44.273393],[-73.288112,44.27033],[-73.292107,44.26714],[-73.296887,44.264969],[-73.296059,44.269256],[-73.304841,44.26656],[-73.304627,44.268789],[-73.295596,44.276393],[-73.293528,44.277006],[-73.287749,44.281502],[-73.285864,44.280686],[-73.281767,44.282677],[-73.280405,44.285299],[-73.281413,44.2877],[-73.285224,44.289418],[-73.287794,44.288264],[-73.284713,44.29329],[-73.28788,44.295724],[-73.290402,44.29591],[-73.291119,44.29394],[-73.297167,44.290978],[-73.303326,44.291655],[-73.300533,44.294702],[-73.302613,44.296695],[-73.299577,44.298829],[-73.297978,44.29682],[-73.295184,44.296783],[-73.293611,44.298742],[-73.294865,44.301072],[-73.301916,44.303505],[-73.301223,44.308158],[-73.296733,44.309401],[-73.294901,44.313155],[-73.294899,44.318084],[-73.292423,44.319798],[-73.290709,44.326074],[-73.288295,44.327559],[-73.285284,44.332115],[-73.282711,44.33272],[-73.280428,44.335931],[-73.281833,44.337564],[-73.281814,44.343285],[-73.284505,44.34518],[-73.284472,44.347295],[-73.277333,44.350496],[-73.273397,44.351508],[-73.270137,44.355523],[-73.271696,44.358963],[-73.267081,44.361176],[-73.266369,44.364473],[-73.27032,44.366721],[-73.270301,44.369489],[-73.26798,44.371682],[-73.269853,44.373434],[-73.268746,44.377028],[-73.274479,44.380676],[-73.279391,44.381145],[-73.278975,44.379081],[-73.282396,44.380147],[-73.282078,44.382607],[-73.279324,44.383407],[-73.275831,44.381365],[-73.273332,44.383755],[-73.275349,44.387624],[-73.278147,44.39009],[-73.276958,44.392919],[-73.27889,44.394721],[-73.278655,44.397543],[-73.276083,44.397449],[-73.271833,44.399537],[-73.272119,44.402558],[-73.270171,44.405504],[-73.268436,44.403951],[-73.265597,44.404333],[-73.25608,44.413948],[-73.255982,44.416909],[-73.258522,44.417534],[-73.257854,44.424604],[-73.25607,44.425258],[-73.257713,44.428738],[-73.252174,44.432963],[-73.251421,44.435007],[-73.254611,44.439063],[-73.253202,44.441642],[-73.250759,44.442663],[-73.247548,44.441511],[-73.245836,44.438702],[-73.245956,44.435908],[-73.248569,44.432987],[-73.246016,44.431384],[-73.251155,44.426463],[-73.252526,44.422405],[-73.250808,44.419121],[-73.248226,44.4183],[-73.246142,44.41985],[-73.244199,44.415673],[-73.24474,44.412235],[-73.24115,44.411811],[-73.236993,44.409632],[-73.23962,44.40632],[-73.237095,44.401264],[-73.232306,44.39998],[-73.22399,44.401841],[-73.222739,44.405373],[-73.222968,44.409518],[-73.221174,44.413325],[-73.218493,44.41535],[-73.218334,44.422995],[-73.217211,44.426277],[-73.218988,44.427448],[-73.219871,44.430995],[-73.218959,44.434325],[-73.22167,44.442292],[-73.231565,44.442975],[-73.233383,44.443971],[-73.230561,44.450035],[-73.232564,44.450773],[-73.231268,44.454043],[-73.225146,44.45646],[-73.222241,44.459606],[-73.219118,44.465531],[-73.219049,44.469473],[-73.220595,44.471482],[-73.22006,44.474418],[-73.221703,44.475348],[-73.221726,44.479026],[-73.224836,44.481226],[-73.224883,44.483076],[-73.231664,44.488966],[-73.239683,44.491813],[-73.24425,44.49245],[-73.248615,44.487982],[-73.248932,44.492711],[-73.246249,44.495596],[-73.246449,44.498241],[-73.249571,44.5004],[-73.261041,44.503606],[-73.270958,44.503922],[-73.271554,44.500605],[-73.274969,44.502938],[-73.276754,44.506494],[-73.274997,44.50767],[-73.272992,44.512086],[-73.270853,44.512788],[-73.268986,44.516232],[-73.269842,44.521383],[-73.273403,44.526701],[-73.273298,44.530994],[-73.279373,44.53342],[-73.276958,44.535508],[-73.279963,44.539127],[-73.286681,44.542865],[-73.293247,44.545133],[-73.296232,44.547716],[-73.302393,44.550288],[-73.311017,44.552023],[-73.308899,44.553707],[-73.305001,44.553527],[-73.299483,44.555484],[-73.296582,44.558263],[-73.293967,44.551657],[-73.28446,44.553486],[-73.280489,44.558931],[-73.279739,44.554788],[-73.275297,44.552925],[-73.274094,44.55087],[-73.262515,44.551183],[-73.253351,44.553757],[-73.248191,44.556145],[-73.245447,44.555],[-73.240855,44.557536],[-73.238693,44.559785],[-73.239583,44.562693],[-73.237827,44.566955],[-73.24149,44.569672],[-73.24062,44.572544],[-73.235916,44.572152],[-73.232773,44.57312],[-73.232903,44.570939],[-73.230325,44.56986],[-73.23059,44.56376],[-73.228063,44.562825],[-73.23396,44.555899],[-73.23105,44.55291],[-73.224299,44.558221],[-73.223006,44.556134],[-73.221779,44.558235],[-73.21771,44.55778],[-73.220136,44.554339],[-73.2227,44.555509],[-73.227439,44.552116],[-73.215095,44.544743],[-73.205673,44.546243],[-73.200218,44.548443],[-73.195017,44.551444],[-73.191571,44.554822],[-73.193397,44.556647],[-73.191384,44.557849],[-73.18947,44.562527],[-73.191287,44.564635],[-73.188184,44.56802],[-73.18378,44.570709],[-73.186683,44.575558],[-73.183153,44.579468],[-73.184213,44.580705],[-73.189437,44.582241],[-73.193047,44.582105],[-73.194068,44.579843],[-73.197155,44.578654],[-73.202497,44.574368],[-73.202398,44.576792],[-73.206991,44.578179],[-73.209831,44.57577],[-73.210732,44.572579],[-73.211561,44.575239],[-73.220843,44.577438],[-73.217579,44.580136],[-73.219685,44.581105],[-73.224455,44.579195],[-73.226759,44.580221],[-73.226693,44.58829],[-73.231562,44.592624],[-73.228561,44.594233],[-73.227935,44.5971],[-73.229314,44.603846],[-73.227943,44.607529],[-73.232294,44.611004],[-73.235015,44.610245],[-73.241799,44.61111],[-73.242197,44.612863],[-73.248802,44.616696],[-73.245404,44.618678],[-73.240616,44.61833],[-73.240673,44.621882],[-73.237003,44.620331],[-73.239645,44.625607],[-73.243794,44.627903],[-73.228503,44.62972],[-73.217199,44.633384],[-73.210054,44.636972],[-73.208457,44.641921],[-73.211652,44.64663],[-73.213012,44.650535],[-73.213037,44.661005],[-73.211957,44.66463],[-73.212224,44.670057],[-73.211025,44.673508],[-73.208879,44.675336],[-73.211066,44.67699],[-73.210652,44.681827],[-73.212662,44.685247],[-73.210712,44.692882],[-73.213013,44.695227],[-73.211862,44.700062],[-73.20971,44.701927],[-73.206957,44.715307],[-73.204115,44.722279],[-73.201646,44.725549],[-73.195297,44.739879],[-73.192808,44.743481],[-73.184696,44.74843],[-73.182328,44.751629],[-73.182098,44.754825],[-73.180251,44.757456],[-73.174476,44.759534],[-73.170147,44.75887],[-73.163901,44.762826],[-73.162548,44.764784],[-73.16211,44.769112],[-73.158263,44.771701],[-73.157869,44.775192],[-73.154537,44.775859],[-73.151171,44.778037],[-73.147847,44.787444],[-73.146369,44.786178],[-73.142518,44.787637],[-73.138286,44.794774],[-73.136921,44.800563],[-73.137149,44.805621],[-73.14217,44.80884],[-73.151931,44.810573],[-73.156201,44.806448],[-73.160092,44.797018],[-73.165831,44.794828],[-73.171853,44.794456],[-73.173849,44.790198],[-73.173603,44.785613],[-73.175592,44.781116],[-73.181931,44.77797],[-73.185488,44.77769],[-73.183614,44.782077],[-73.187265,44.784588],[-73.187914,44.788298],[-73.185508,44.79344],[-73.184657,44.797307],[-73.181526,44.798846],[-73.179875,44.802727],[-73.17398,44.801421],[-73.17087,44.804761],[-73.171588,44.807667],[-73.16972,44.809708],[-73.17334,44.813074],[-73.174723,44.812047],[-73.177741,44.815273],[-73.18548,44.817287],[-73.187854,44.816811],[-73.192053,44.809878],[-73.193168,44.811705],[-73.190471,44.815318],[-73.190484,44.819076],[-73.188382,44.830543],[-73.185104,44.834893],[-73.183671,44.843346],[-73.184466,44.850304],[-73.183204,44.859569],[-73.1805,44.871535],[-73.177492,44.876456],[-73.17419,44.879694],[-73.172057,44.885605],[-73.170302,44.887405],[-73.166742,44.896129],[-73.166999,44.904537],[-73.164215,44.910163],[-73.164189,44.91433],[-73.162855,44.915052],[-73.160929,44.921156],[-73.162181,44.923296],[-73.168698,44.928423],[-73.180452,44.933729],[-73.193366,44.935928],[-73.201909,44.93473],[-73.204646,44.931177],[-73.205617,44.928199],[-73.209771,44.92388],[-73.21367,44.923181],[-73.215821,44.928408],[-73.222928,44.930238],[-73.222619,44.932502],[-73.226086,44.930185],[-73.225237,44.93446],[-73.227607,44.93758],[-73.227154,44.942628],[-73.221609,44.954104],[-73.221681,44.955726],[-73.216557,44.961106],[-73.213175,44.969321],[-73.208773,44.972014],[-73.208967,44.974013],[-73.204286,44.975206],[-73.201924,44.973202],[-73.195294,44.975922],[-73.193666,44.978855],[-73.189002,44.980949],[-73.186319,44.986425],[-73.182693,44.99148],[-73.176768,44.992799],[-73.171031,44.990812],[-73.169563,44.987095],[-73.169502,44.983685],[-73.17174,44.978761],[-73.174351,44.97698],[-73.175352,44.973053],[-73.171612,44.972254],[-73.170119,44.977102],[-73.165083,44.977588],[-73.167347,44.979825],[-73.165781,44.983639],[-73.164921,44.9908],[-73.159468,44.998431],[-73.159561,44.995084],[-73.155874,44.992077],[-73.157753,44.983002],[-73.155451,44.987569],[-73.15508,44.993365],[-73.158864,44.995464],[-73.154169,44.99511],[-73.15477,44.999872],[-73.160529,45.003804],[-73.160874,45.007775],[-73.155997,45.006166],[-73.149942,45.008976],[-73.147547,45.009044],[-73.146021,45.011483],[-73.141248,45.008011],[-73.13522,45.00857],[-73.13397,45.007501],[-73.136182,45.003635],[-73.138123,45.002775],[-73.140152,44.999149],[-73.144086,44.998138],[-73.14808,44.990281],[-73.147933,44.985638],[-73.145446,44.98485],[-73.141343,44.985616],[-73.138517,44.988271],[-73.135758,44.986313],[-73.146861,44.981696],[-73.143403,44.976031],[-73.138842,44.976196],[-73.135913,44.974406],[-73.132117,44.976437],[-73.131207,44.975],[-73.126994,44.977889],[-73.127679,44.972899],[-73.11252,44.975192],[-73.110086,44.979059],[-73.106959,44.980065],[-73.106126,44.98258],[-73.104472,44.980991],[-73.101984,44.982894],[-73.098498,44.981909],[-73.098935,44.986309],[-73.093216,44.985864],[-73.088389,44.988906],[-73.087132,44.996221],[-73.091235,44.994954],[-73.090713,45.000507],[-73.091697,45.002181],[-73.091415,45.008918],[-73.092262,45.011821],[-73.090815,45.01534],[-73.065351,45.015965],[-73.020962,45.015242],[-72.966868,45.014151],[-72.908674,45.015598],[-72.869074,45.0162],[-72.846986,45.016667],[-72.821306,45.016288],[-72.748171,45.015629],[-72.733899,45.015839],[-72.702936,45.015629],[-72.634661,45.0147],[-72.604299,45.013122],[-72.584741,45.011578],[-72.555385,45.008032],[-72.530853,45.007779],[-72.478975,45.008839],[-72.450436,45.008573],[-72.388007,45.006271],[-72.368628,45.006228],[-72.334014,45.005077],[-72.311948,45.003796],[-72.293367,45.004362],[-72.270216,45.004209],[-72.25545,45.004436],[-72.251022,44.998171],[-72.246687,44.99542],[-72.245765,44.992877],[-72.241953,44.988882],[-72.243553,44.987454],[-72.240169,44.985874],[-72.239334,44.978652],[-72.241397,44.974831],[-72.246385,44.969784],[-72.245594,44.96521],[-72.24207,44.962897],[-72.240923,44.963549],[-72.234326,44.962426],[-72.234418,44.955434],[-72.232747,44.952913],[-72.233816,44.949402],[-72.231003,44.947033],[-72.229895,44.943172],[-72.217182,44.941913],[-72.218398,44.938558],[-72.216362,44.932967],[-72.214439,44.934397],[-72.216192,44.936523],[-72.206424,44.937119],[-72.206326,44.940432],[-72.208067,44.946475],[-72.210835,44.948577],[-72.207665,44.949341],[-72.208311,44.951661],[-72.205715,44.953808],[-72.20795,44.953894],[-72.210604,44.951267],[-72.209848,44.94948],[-72.217131,44.949397],[-72.218634,44.950828],[-72.220307,44.956559],[-72.207577,44.960353],[-72.201951,44.963244],[-72.197042,44.96343],[-72.192088,44.966639],[-72.187074,44.974392],[-72.186301,44.97977],[-72.1869,44.988255],[-72.183355,44.994806],[-72.190095,44.995247],[-72.195732,44.99318],[-72.198953,44.997058],[-72.197296,44.998985],[-72.200449,45.002415],[-72.208915,45.002217],[-72.210904,45.005297],[-72.17303,45.005849],[-72.151069,45.006024],[-72.110555,45.005642],[-72.054285,45.006226],[-71.945732,45.008292],[-71.913972,45.00762],[-71.904857,45.007792],[-71.829035,45.009749],[-71.804963,45.010463],[-71.754113,45.011344],[-71.72383,45.011426],[-71.696821,45.011309],[-71.666745,45.011707],[-71.644538,45.012272],[-71.612661,45.012724],[-71.572518,45.012507],[-71.501077,45.013452],[-71.465047,45.013635],[-71.465961,45.011916],[-71.476345,45.009423],[-71.478455,45.007483],[-71.480549,45.002331],[-71.485844,45.002261],[-71.488278,45.000736],[-71.495793,45.004649],[-71.498414,45.003941],[-71.50132,45.006944],[-71.504666,45.008312],[-71.508781,45.007841],[-71.514033,45.004381],[-71.519993,45.002414],[-71.524182,45.002119],[-71.530493,44.999263],[-71.531744,44.997322],[-71.535974,44.994882],[-71.537088,44.992608],[-71.533105,44.991388],[-71.538144,44.989849],[-71.538648,44.987255],[-71.541318,44.985301],[-71.540528,44.98361],[-71.536756,44.983898],[-71.536985,44.980587],[-71.532972,44.979892],[-71.53201,44.976268],[-71.527448,44.973186],[-71.525526,44.969623],[-71.522687,44.969745],[-71.523147,44.966554],[-71.521085,44.966182],[-71.523377,44.963959],[-71.516322,44.964477],[-71.515002,44.958596],[-71.516279,44.952],[-71.518822,44.950385],[-71.516919,44.948599],[-71.518005,44.945689],[-71.514791,44.943694],[-71.517069,44.939116],[-71.519897,44.938487],[-71.522839,44.939914],[-71.519729,44.936749],[-71.51606,44.934841],[-71.515869,44.931714],[-71.513273,44.928987],[-71.515724,44.927231],[-71.512202,44.925964],[-71.503329,44.918082],[-71.500498,44.914228],[-71.500549,44.911955],[-71.498426,44.910944],[-71.493364,44.911611],[-71.496094,44.907848],[-71.494836,44.905918],[-71.496179,44.903623],[-71.500524,44.904712],[-71.503643,44.901266],[-71.507575,44.899283],[-71.508274,44.896519],[-71.513647,44.894573],[-71.514008,44.89317],[-71.51079,44.890198],[-71.515125,44.887036],[-71.516086,44.884522],[-71.518675,44.884801],[-71.521957,44.880321],[-71.528373,44.877711],[-71.529154,44.873066],[-71.535129,44.869032],[-71.539929,44.868477],[-71.545924,44.865931],[-71.549452,44.862083],[-71.549538,44.859032],[-71.547254,44.856131],[-71.555488,44.849535],[-71.555278,44.846755],[-71.551578,44.842756],[-71.551115,44.836964],[-71.556924,44.8342],[-71.561222,44.824264],[-71.565036,44.82408],[-71.573152,44.820822],[-71.576866,44.815196],[-71.576782,44.813228],[-71.572904,44.81124],[-71.568385,44.807039],[-71.571889,44.801414],[-71.572631,44.796772],[-71.571161,44.794313],[-71.573383,44.790445],[-71.575863,44.789257],[-71.578641,44.785443],[-71.583081,44.785181],[-71.592487,44.782668],[-71.595845,44.778238],[-71.5951,44.775404],[-71.599843,44.773441],[-71.602874,44.76926],[-71.606214,44.766818],[-71.611074,44.765516],[-71.613177,44.760819],[-71.612857,44.758997],[-71.617722,44.755827],[-71.62026,44.75602],[-71.62463,44.754053],[-71.62992,44.753577],[-71.632161,44.750984],[-71.631061,44.748508],[-71.626987,44.747013],[-71.625149,44.742749],[-71.626412,44.740509],[-71.624997,44.737439],[-71.626094,44.728542],[-71.622864,44.72736],[-71.6172,44.728773],[-71.618645,44.722192],[-71.612549,44.719185],[-71.612513,44.716672],[-71.608521,44.713955],[-71.603949,44.707582],[-71.601294,44.706891],[-71.598589,44.70324],[-71.601007,44.699443],[-71.59457,44.697032],[-71.593802,44.695631],[-71.596851,44.694213],[-71.597955,44.691766],[-71.596564,44.687323],[-71.594055,44.68393],[-71.59415,44.681532],[-71.596766,44.678791],[-71.594903,44.677114],[-71.59021,44.676349],[-71.588439,44.674739],[-71.582122,44.67406],[-71.581604,44.672378],[-71.587454,44.670308],[-71.585157,44.666056],[-71.584942,44.663507],[-71.587811,44.660834],[-71.584606,44.65688],[-71.581315,44.655448],[-71.575215,44.655828],[-71.576098,44.65276],[-71.579906,44.652245],[-71.573316,44.649959],[-71.569025,44.650288],[-71.567053,44.653347],[-71.562806,44.652354],[-71.561962,44.647187],[-71.55779,44.641958],[-71.559704,44.639296],[-71.563775,44.638941],[-71.56297,44.636404],[-71.558187,44.634273],[-71.553756,44.630424],[-71.547226,44.630353],[-71.546931,44.628548],[-71.552104,44.627312],[-71.554013,44.629255],[-71.557019,44.629484],[-71.556531,44.627203],[-71.553113,44.627004],[-71.5509,44.62512],[-71.547756,44.625005],[-71.547237,44.622106],[-71.552991,44.625181],[-71.555188,44.625135],[-71.556561,44.618116],[-71.553982,44.609716],[-71.55386,44.605596],[-71.555859,44.603704],[-71.561764,44.603132],[-71.56149,44.600331],[-71.557279,44.599379],[-71.551769,44.601118],[-71.55061,44.599691],[-71.554288,44.597662],[-71.555009,44.593225],[-71.553372,44.593169],[-71.545972,44.597128],[-71.545208,44.595648],[-71.547482,44.591665],[-71.546307,44.590589],[-71.537914,44.59387],[-71.54028,44.589117],[-71.538067,44.587426],[-71.534939,44.587698],[-71.538464,44.582129],[-71.545788,44.577932],[-71.549664,44.578321],[-71.551679,44.580778],[-71.550244,44.583639],[-71.551968,44.584608],[-71.554837,44.580771],[-71.552045,44.5753],[-71.547726,44.571379],[-71.551931,44.569105],[-71.557711,44.570402],[-71.559156,44.568136],[-71.558225,44.565596],[-71.561368,44.56333],[-71.568235,44.562758],[-71.575498,44.564955],[-71.591174,44.565345],[-71.596693,44.559981],[-71.597517,44.554053],[-71.585752,44.546576],[-71.576459,44.542227],[-71.572263,44.538687],[-71.573499,44.533141],[-71.578962,44.526175],[-71.582265,44.523616],[-71.587889,44.522383],[-71.59288,44.523187],[-71.594038,44.521857],[-71.591658,44.517668],[-71.586592,44.514968],[-71.582853,44.508178],[-71.576642,44.503791],[-71.579741,44.501502],[-71.584516,44.502997],[-71.586302,44.506552],[-71.588285,44.505187],[-71.58621,44.503104],[-71.585874,44.500022],[-71.58943,44.498221],[-71.592421,44.501532],[-71.59461,44.500034],[-71.594907,44.494398],[-71.598601,44.486823],[-71.600157,44.485831],[-71.609526,44.484198],[-71.617079,44.486045],[-71.619353,44.48445],[-71.624557,44.475181],[-71.630141,44.473846],[-71.634825,44.476141],[-71.633437,44.478209],[-71.626341,44.480223],[-71.624648,44.482405],[-71.628382,44.484363],[-71.632392,44.484054],[-71.633727,44.481173],[-71.638291,44.47794],[-71.642308,44.476499],[-71.646325,44.473874],[-71.647617,44.471627],[-71.64556,44.468924],[-71.639627,44.466349],[-71.638863,44.464954],[-71.640818,44.462339],[-71.644266,44.460248],[-71.652127,44.46079],[-71.655076,44.457694],[-71.656765,44.453465],[-71.65695,44.448604],[-71.658906,44.442631],[-71.660883,44.439935],[-71.665546,44.43671],[-71.669299,44.435786],[-71.677382,44.435497],[-71.679282,44.434335],[-71.675951,44.428904],[-71.676967,44.426846],[-71.682701,44.427338],[-71.684836,44.423275],[-71.693813,44.41954],[-71.703155,44.413274],[-71.714279,44.409543],[-71.725743,44.410962],[-71.735413,44.410003],[-71.738732,44.407474],[-71.741725,44.402019],[-71.747439,44.40107],[-71.755048,44.405978],[-71.761966,44.407025],[-71.767383,44.405723],[-71.777942,44.399971],[-71.789982,44.400253],[-71.793675,44.399459],[-71.802205,44.393547],[-71.803685,44.390709],[-71.799885,44.38607],[-71.803074,44.383278],[-71.807484,44.383758],[-71.814427,44.38192],[-71.815678,44.375023],[-71.812626,44.372604],[-71.813054,44.370521],[-71.816182,44.368103],[-71.816182,44.366493],[-71.812642,44.358421],[-71.812993,44.355713],[-71.818623,44.353043],[-71.822972,44.35286],[-71.8337,44.350044],[-71.843023,44.344704],[-71.85285,44.34092],[-71.8617,44.340218],[-71.870245,44.336945],[-71.873053,44.336754],[-71.881461,44.339951],[-71.885825,44.342247],[-71.892722,44.343583],[-71.898765,44.346436],[-71.905357,44.348221],[-71.910621,44.348374],[-71.917213,44.346634],[-71.925225,44.341851],[-71.929375,44.337479],[-71.93525,44.335755],[-71.939217,44.335861],[-71.945595,44.337708],[-71.958047,44.337425],[-71.962076,44.336556],[-71.971322,44.336655],[-71.981424,44.337364],[-71.984782,44.335793],[-71.98678,44.33107],[-71.988871,44.329735],[-72.008526,44.322426],[-72.019252,44.320191],[-72.029002,44.322381],[-72.032802,44.320488],[-72.033626,44.318055],[-72.031413,44.315247],[-72.032558,44.310303],[-72.032878,44.302163],[-72.037212,44.29741],[-72.040233,44.295685],[-72.044002,44.295335],[-72.045788,44.292428],[-72.053463,44.290353],[-72.058636,44.2865],[-72.064389,44.279321],[-72.068218,44.272454],[-72.066891,44.26809],[-72.058331,44.270081],[-72.058742,44.266976],[-72.061245,44.263124],[-72.059704,44.256364],[-72.05473,44.247873],[-72.049572,44.243562],[-72.047954,44.237848],[-72.049877,44.235086],[-72.052852,44.227678],[-72.053814,44.222856],[-72.052578,44.217828],[-72.05537,44.212831],[-72.059856,44.209779],[-72.057751,44.205835],[-72.060375,44.199823],[-72.064327,44.197572],[-72.065853,44.189325],[-72.060146,44.183862],[-72.057705,44.180101],[-72.056255,44.175569],[-72.05183,44.166498],[-72.049038,44.165315],[-72.046428,44.161379],[-72.042034,44.161524],[-72.043911,44.158052],[-72.04269,44.156473],[-72.038921,44.156328],[-72.042385,44.152506],[-72.042827,44.150034],[-72.041546,44.139956],[-72.041973,44.137171],[-72.03744,44.133394],[-72.033794,44.132342],[-72.037094,44.125047],[-72.045131,44.124689],[-72.050533,44.12031],[-72.053143,44.119509],[-72.053341,44.114398],[-72.055386,44.110896],[-72.05299,44.104937],[-72.052715,44.101451],[-72.04788,44.096584],[-72.043132,44.097239],[-72.042263,44.101351],[-72.038249,44.103549],[-72.033046,44.101779],[-72.03065,44.098765],[-72.03184,44.092799],[-72.03532,44.08919],[-72.044491,44.088542],[-72.044383,44.085994],[-72.038204,44.083033],[-72.034038,44.081874],[-72.031627,44.079158],[-72.034175,44.077113],[-72.038905,44.076732],[-72.043514,44.079242],[-72.053004,44.076098],[-72.048243,44.070353],[-72.053935,44.063861],[-72.057292,44.058337],[-72.059337,44.057681],[-72.065593,44.058299],[-72.068095,44.057376],[-72.069148,44.054683],[-72.063121,44.052196],[-72.062358,44.049365],[-72.066112,44.049007],[-72.076091,44.045032],[-72.079357,44.041385],[-72.078899,44.038799],[-72.07481,44.032405],[-72.08041,44.029209],[-72.081905,44.026348],[-72.082012,44.022907],[-72.085094,44.021167],[-72.090679,44.024227],[-72.094021,44.023433],[-72.095944,44.018756],[-72.094891,44.015468],[-72.090374,44.010807],[-72.093563,44.009655],[-72.093548,44.012859],[-72.095257,44.014369],[-72.099804,44.015423],[-72.105282,44.013057],[-72.105618,44.010517],[-72.103619,44.003551],[-72.104122,44.002369],[-72.109219,44.000354],[-72.11253,43.996792],[-72.116681,43.994762],[-72.116955,43.992634],[-72.112179,43.986843],[-72.113125,43.981403],[-72.112774,43.975613],[-72.114377,43.968052],[-72.111371,43.966946],[-72.106396,43.969982],[-72.092205,43.967053],[-72.091412,43.96545],[-72.09837,43.964077],[-72.101223,43.961376],[-72.099178,43.957203],[-72.104061,43.951268],[-72.1078,43.948712],[-72.111721,43.94756],[-72.11691,43.947491],[-72.119275,43.943745],[-72.11691,43.933842],[-72.118085,43.929783],[-72.118252,43.923184],[-72.122113,43.918065],[-72.132413,43.913319],[-72.13606,43.909169],[-72.145811,43.904843],[-72.150129,43.902409],[-72.153867,43.899121],[-72.158491,43.892804],[-72.159315,43.88812],[-72.164259,43.886289],[-72.170561,43.886182],[-72.172987,43.883779],[-72.173583,43.879613],[-72.167876,43.869161],[-72.175597,43.866369],[-72.180815,43.866117],[-72.184417,43.864469],[-72.185118,43.861005],[-72.188033,43.855153],[-72.183089,43.844678],[-72.18341,43.841329],[-72.182448,43.834119],[-72.183638,43.830442],[-72.188796,43.822843],[-72.187468,43.817335],[-72.183379,43.810125],[-72.185729,43.803862],[-72.191435,43.79981],[-72.193145,43.795355],[-72.196181,43.790915],[-72.201629,43.787764],[-72.205535,43.784582],[-72.203933,43.779402],[-72.205276,43.776777],[-72.205229,43.770928],[-72.211135,43.767683],[-72.21694,43.766329],[-72.219009,43.765036],[-72.222473,43.759642],[-72.230698,43.750037],[-72.231629,43.747611],[-72.235321,43.745352],[-72.246659,43.742484],[-72.252915,43.739035],[-72.265504,43.733794],[-72.271104,43.733916],[-72.27527,43.72753],[-72.280794,43.724341],[-72.284441,43.72103],[-72.286607,43.717269],[-72.294878,43.708884],[-72.299166,43.706641],[-72.301775,43.699653],[-72.305132,43.695319],[-72.306017,43.683349],[-72.302446,43.679259],[-72.303438,43.667976],[-72.310916,43.659568],[-72.313387,43.657455],[-72.314471,43.654426],[-72.314883,43.648674],[-72.314166,43.642669],[-72.315951,43.640724],[-72.323412,43.638466],[-72.328753,43.635894],[-72.32976,43.633903],[-72.327441,43.631195],[-72.329074,43.627006],[-72.332293,43.625046],[-72.335147,43.616157],[-72.333194,43.610283],[-72.32858,43.607406],[-72.328479,43.600907],[-72.333331,43.599098],[-72.343132,43.591788],[-72.34682,43.590271],[-72.349643,43.587815],[-72.356647,43.586441],[-72.373799,43.579117],[-72.380314,43.573174],[-72.379811,43.567086],[-72.382985,43.563416],[-72.380711,43.550706],[-72.381489,43.546891],[-72.380482,43.541192],[-72.384282,43.533898],[-72.390416,43.527558],[-72.394002,43.527566],[-72.396091,43.523414],[-72.396062,43.520844],[-72.39887,43.512651],[-72.396581,43.508432],[-72.387379,43.502656],[-72.385105,43.500696],[-72.380146,43.492227],[-72.381474,43.480028],[-72.383031,43.475137],[-72.392568,43.466882],[-72.391652,43.459207],[-72.390401,43.454363],[-72.391255,43.44832],[-72.393559,43.444452],[-72.395879,43.437174],[-72.396276,43.426935],[-72.399939,43.415133],[-72.400106,43.40861],[-72.402059,43.398653],[-72.40328,43.396456],[-72.403509,43.391581],[-72.40473,43.389941],[-72.410467,43.386309],[-72.415213,43.380282],[-72.41593,43.374972],[-72.41474,43.370082],[-72.415274,43.365924],[-72.412649,43.362277],[-72.407294,43.360408],[-72.403082,43.357745],[-72.392843,43.357966],[-72.389822,43.356021],[-72.394216,43.351138],[-72.399289,43.347579],[-72.408529,43.334885],[-72.410559,43.331119],[-72.409353,43.328433],[-72.401693,43.319484],[-72.397711,43.317501],[-72.395315,43.312694],[-72.39916,43.307979],[-72.399374,43.306369],[-72.402792,43.30244],[-72.402594,43.300853],[-72.409293,43.281002],[-72.416037,43.270229],[-72.42092,43.265522],[-72.421927,43.263149],[-72.433005,43.259213],[-72.43714,43.256054],[-72.438987,43.251187],[-72.439506,43.245663],[-72.438224,43.239819],[-72.434165,43.231907],[-72.434913,43.229512],[-72.439139,43.223385],[-72.441047,43.21819],[-72.440787,43.213673],[-72.43827,43.206334],[-72.438849,43.201184],[-72.450508,43.19261],[-72.449531,43.189001],[-72.444221,43.182646],[-72.444907,43.178106],[-72.452138,43.173901],[-72.452949,43.171637],[-72.451896,43.165755],[-72.4524,43.158537],[-72.45211,43.153227],[-72.456565,43.149466],[-72.457222,43.146498],[-72.453056,43.139411],[-72.447837,43.137129],[-72.443351,43.137725],[-72.440803,43.136626],[-72.440696,43.133666],[-72.442542,43.131591],[-72.442298,43.129302],[-72.433066,43.120704],[-72.432196,43.115867],[-72.433478,43.110587],[-72.436942,43.107986],[-72.441413,43.105948],[-72.443198,43.103019],[-72.442969,43.10044],[-72.43885,43.094566],[-72.438834,43.091903],[-72.434516,43.086616],[-72.433982,43.084449],[-72.43566,43.080886],[-72.440177,43.075607],[-72.445991,43.070335],[-72.449882,43.068771],[-72.454887,43.063049],[-72.462898,43.058227],[-72.467445,43.053726],[-72.467445,43.050102],[-72.465538,43.046585],[-72.461082,43.043297],[-72.460335,43.041084],[-72.461204,43.034401],[-72.46302,43.029015],[-72.462623,43.025787],[-72.45832,43.018578],[-72.452064,43.015534],[-72.443672,43.009918],[-72.44419,43.005058],[-72.450073,43.00005],[-72.456626,43.001252],[-72.459312,43.000573],[-72.462242,42.997734],[-72.464592,42.993714],[-72.46537,42.989174],[-72.461814,42.984215],[-72.462516,42.981743],[-72.473076,42.972527],[-72.476921,42.971787],[-72.481728,42.973923],[-72.487311,42.971508],[-72.49218,42.967675],[-72.503213,42.96608],[-72.506341,42.964463],[-72.518365,42.963136],[-72.527139,42.957314],[-72.532022,42.954942],[-72.534433,42.949357],[-72.532816,42.947419],[-72.528131,42.945008],[-72.526941,42.941377],[-72.5263,42.935365],[-72.527078,42.928346],[-72.524316,42.919],[-72.524606,42.914873],[-72.528803,42.912958],[-72.531595,42.907098],[-72.531336,42.898187],[-72.535334,42.893411],[-72.540247,42.889551],[-72.552622,42.885043],[-72.552805,42.881709],[-72.555258,42.875426],[-72.555582,42.867747],[-72.55427,42.860614],[-72.556882,42.854566],[-72.55694,42.852374],[-72.552439,42.845722],[-72.549402,42.843219],[-72.547083,42.838542],[-72.546656,42.825756],[-72.545694,42.822254],[-72.542398,42.815365],[-72.541513,42.807094],[-72.517038,42.788593],[-72.512231,42.784329],[-72.509285,42.780537],[-72.508659,42.776432],[-72.51049,42.773831],[-72.515785,42.770352],[-72.516441,42.767956],[-72.51342,42.764195],[-72.507942,42.764538],[-72.501533,42.767239],[-72.499473,42.768925],[-72.49897,42.772099],[-72.495323,42.77367],[-72.490546,42.772747],[-72.483634,42.764996],[-72.479362,42.763333],[-72.476844,42.760601],[-72.475379,42.756588],[-72.473609,42.746785],[-72.471427,42.744023],[-72.467688,42.741536],[-72.46044,42.732114],[-72.458411,42.726933],[-72.516735,42.728528],[-72.598656,42.730924],[-72.721319,42.734099],[-72.749538,42.734981],[-72.791012,42.736022],[-72.809113,42.736581],[-72.923563,42.739164],[-73.006044,42.740725],[-73.023015,42.741135],[-73.120096,42.743088],[-73.2149,42.744909],[-73.276421,42.746019],[-73.281557,42.76614],[-73.290944,42.80192],[-73.286343,42.808063],[-73.286547,42.809484],[-73.283695,42.813856],[-73.287063,42.82014],[-73.285388,42.834093],[-73.284311,42.834954],[-73.278673,42.83341],[-73.278306,42.837558],[-73.275804,42.897249],[-73.275701,42.906494],[-73.27417,42.949028],[-73.271838,42.995633],[-73.271427,43.000083],[-73.269777,43.035976],[-73.265595,43.095925],[-73.263951,43.12508],[-73.259159,43.216847],[-73.258697,43.230554],[-73.256475,43.260092],[-73.25579,43.277563],[-73.255131,43.302139],[-73.254043,43.330172],[-73.253178,43.357708],[-73.252353,43.372993],[-73.250146,43.425712],[-73.248395,43.470633],[-73.247764,43.492816],[-73.246843,43.517251],[-73.247697,43.523173],[-73.24682,43.52578],[-73.243366,43.527726],[-73.241485,43.53262],[-73.246585,43.541854],[-73.250132,43.543428],[-73.24864,43.553857],[-73.25144,43.555387],[-73.255554,43.559894],[-73.25863,43.564949],[-73.264352,43.567786],[-73.264162,43.569135],[-73.267935,43.569136],[-73.269699,43.571769],[-73.281077,43.574171],[-73.281295,43.577578],[-73.284911,43.579271],[-73.289158,43.578335],[-73.295667,43.578632],[-73.297257,43.57969],[-73.29211,43.584884],[-73.296709,43.587113],[-73.293279,43.592546],[-73.292761,43.596602],[-73.291018,43.599234],[-73.293741,43.605202],[-73.298302,43.61021],[-73.302487,43.609479],[-73.300314,43.617322],[-73.302957,43.621003],[-73.302552,43.625708],[-73.307231,43.628239],[-73.310228,43.624228],[-73.317566,43.627355],[-73.324491,43.627514],[-73.327701,43.625913],[-73.334217,43.626918],[-73.341577,43.624738],[-73.342841,43.626505],[-73.346991,43.624155],[-73.348217,43.621708],[-73.351231,43.622501],[-73.353637,43.625926],[-73.35729,43.625905],[-73.35911,43.624598],[-73.365562,43.62344],[-73.371889,43.624489],[-73.372486,43.622751],[-73.369933,43.619093],[-73.376036,43.612596],[-73.374225,43.610196],[-73.376353,43.609098],[-73.372374,43.606013],[-73.372907,43.603886],[-73.377747,43.600066],[-73.377369,43.598397],[-73.382185,43.598264],[-73.383596,43.596974],[-73.381714,43.592962],[-73.382413,43.591576],[-73.3869,43.590769],[-73.386252,43.58841],[-73.382615,43.585624],[-73.38525,43.583262],[-73.38271,43.579195],[-73.384338,43.575397],[-73.38974,43.574682],[-73.39189,43.572948],[-73.392004,43.569898],[-73.398125,43.568064],[-73.405629,43.571178],[-73.416964,43.57773],[-73.420383,43.581494],[-73.428636,43.583993],[-73.430947,43.587035],[-73.430995,43.589128]],[[-73.21278,44.769253],[-73.211156,44.774485],[-73.209695,44.774332],[-73.205385,44.778],[-73.199006,44.778476],[-73.19832,44.77563],[-73.194756,44.77493],[-73.199963,44.772977],[-73.200408,44.771418],[-73.20838,44.76801],[-73.213442,44.766496],[-73.21278,44.769253]],[[-73.211105,44.800991],[-73.21122,44.806287],[-73.208753,44.808922],[-73.205729,44.803324],[-73.207205,44.798594],[-73.210885,44.796383],[-73.211105,44.800991]],[[-73.304892,45.011441],[-73.272379,45.01207],[-73.209936,45.013084],[-73.212563,45.006327],[-73.21787,44.994672],[-73.217241,44.991223],[-73.218646,44.987581],[-73.220805,44.986333],[-73.224117,44.981455],[-73.223506,44.979785],[-73.22654,44.97526],[-73.233326,44.967641],[-73.233119,44.966148],[-73.239301,44.962926],[-73.243895,44.962951],[-73.247263,44.961725],[-73.253898,44.960921],[-73.26295,44.957449],[-73.265063,44.954654],[-73.263569,44.948096],[-73.260347,44.940719],[-73.261909,44.93953],[-73.259346,44.937175],[-73.260113,44.935459],[-73.264594,44.933315],[-73.263509,44.928606],[-73.266537,44.928422],[-73.267513,44.925169],[-73.272891,44.922136],[-73.275843,44.917626],[-73.274394,44.913805],[-73.268351,44.91077],[-73.26975,44.907609],[-73.272771,44.905134],[-73.27244,44.902771],[-73.276096,44.896583],[-73.27799,44.891584],[-73.277384,44.886038],[-73.281402,44.876008],[-73.281071,44.874748],[-73.283466,44.869167],[-73.287134,44.862785],[-73.289536,44.855156],[-73.292625,44.848314],[-73.295031,44.846731],[-73.294443,44.853605],[-73.29305,44.855525],[-73.292081,44.860945],[-73.295503,44.863522],[-73.306088,44.866291],[-73.305987,44.867941],[-73.309582,44.867571],[-73.310747,44.871315],[-73.30883,44.875981],[-73.305089,44.880427],[-73.302145,44.885568],[-73.305096,44.891858],[-73.304223,44.899043],[-73.304732,44.902849],[-73.307496,44.903907],[-73.313849,44.904402],[-73.312954,44.90677],[-73.314143,44.910827],[-73.312645,44.917158],[-73.308405,44.925634],[-73.308621,44.928756],[-73.313309,44.932152],[-73.313146,44.938167],[-73.310605,44.945885],[-73.306764,44.951737],[-73.306029,44.958874],[-73.304397,44.967001],[-73.305416,44.97023],[-73.31017,44.97355],[-73.309559,44.980234],[-73.311011,44.982164],[-73.314691,44.983393],[-73.323737,44.984858],[-73.337142,44.985509],[-73.341748,44.981223],[-73.341247,44.985717],[-73.342275,44.989589],[-73.340802,44.992178],[-73.335961,44.991761],[-73.331902,44.990095],[-73.328415,44.993217],[-73.331966,44.996694],[-73.331689,45.001628],[-73.335769,45.009586],[-73.335274,45.010838],[-73.304892,45.011441]],[[-73.211914,44.835577],[-73.212661,44.834049],[-73.217266,44.83395],[-73.21802,44.83619],[-73.22382,44.836109],[-73.2269,44.831309],[-73.225388,44.828603],[-73.227282,44.827993],[-73.233137,44.823106],[-73.234808,44.820255],[-73.23605,44.822701],[-73.238761,44.823206],[-73.237696,44.828244],[-73.233868,44.835337],[-73.230534,44.836456],[-73.227961,44.840796],[-73.225284,44.843432],[-73.222198,44.844622],[-73.220313,44.846911],[-73.215179,44.845175],[-73.213245,44.841512],[-73.211914,44.835577]],[[-73.306408,44.77766],[-73.308458,44.773658],[-73.308828,44.770489],[-73.306987,44.769261],[-73.310038,44.763806],[-73.31137,44.76514],[-73.315936,44.754337],[-73.316121,44.7593],[-73.313803,44.761431],[-73.313241,44.766176],[-73.31586,44.768015],[-73.319802,44.76589],[-73.323577,44.768218],[-73.324349,44.777713],[-73.319234,44.784925],[-73.315728,44.787538],[-73.313061,44.794119],[-73.312093,44.798411],[-73.313472,44.803383],[-73.311708,44.806485],[-73.312817,44.809807],[-73.312062,44.812807],[-73.31503,44.815295],[-73.311082,44.824356],[-73.307681,44.828532],[-73.305137,44.834562],[-73.302284,44.836676],[-73.298622,44.83329],[-73.301151,44.833567],[-73.305764,44.824818],[-73.304276,44.823424],[-73.30551,44.820119],[-73.301146,44.818929],[-73.297966,44.82445],[-73.299151,44.826502],[-73.295716,44.82921],[-73.291731,44.834068],[-73.288345,44.831112],[-73.282443,44.829638],[-73.27833,44.830349],[-73.27741,44.828042],[-73.274707,44.829466],[-73.271928,44.836575],[-73.274855,44.837175],[-73.270734,44.841739],[-73.270722,44.844593],[-73.27297,44.846094],[-73.278397,44.845109],[-73.280732,44.846994],[-73.283771,44.846968],[-73.286279,44.845155],[-73.283414,44.851247],[-73.282064,44.859449],[-73.279822,44.862572],[-73.27845,44.861304],[-73.272499,44.86212],[-73.270564,44.863825],[-73.273744,44.871397],[-73.271904,44.874578],[-73.272183,44.88331],[-73.269771,44.89084],[-73.266455,44.896735],[-73.260836,44.896083],[-73.258653,44.897445],[-73.256488,44.903169],[-73.250576,44.910667],[-73.250483,44.912646],[-73.245423,44.917551],[-73.243759,44.92051],[-73.239238,44.92112],[-73.239926,44.918479],[-73.235608,44.915703],[-73.235436,44.913373],[-73.23273,44.9101],[-73.232544,44.903467],[-73.231562,44.90112],[-73.233019,44.893329],[-73.232604,44.888263],[-73.231092,44.883541],[-73.233423,44.88107],[-73.236684,44.882002],[-73.242904,44.881933],[-73.245392,44.877181],[-73.250841,44.875223],[-73.252301,44.872011],[-73.249681,44.869107],[-73.249786,44.864722],[-73.253647,44.862969],[-73.259144,44.856313],[-73.259556,44.849488],[-73.264075,44.846216],[-73.267782,44.840267],[-73.267575,44.837901],[-73.269684,44.833666],[-73.274221,44.828959],[-73.27844,44.821549],[-73.276031,44.81966],[-73.280573,44.817618],[-73.280808,44.821602],[-73.283739,44.82195],[-73.287786,44.820661],[-73.290294,44.814131],[-73.286849,44.814017],[-73.287507,44.807991],[-73.286885,44.8047],[-73.289517,44.793617],[-73.286999,44.791072],[-73.287986,44.78817],[-73.288082,44.779935],[-73.293637,44.774734],[-73.293285,44.769359],[-73.296174,44.769424],[-73.298646,44.767093],[-73.299878,44.767904],[-73.301395,44.773175],[-73.303851,44.777804],[-73.306408,44.77766]],[[-73.249738,44.694423],[-73.249074,44.704099],[-73.248246,44.70595],[-73.250292,44.707318],[-73.245372,44.707976],[-73.243079,44.705497],[-73.245008,44.697964],[-73.244359,44.694925],[-73.242415,44.693932],[-73.243185,44.690397],[-73.244796,44.689107],[-73.249029,44.690194],[-73.249738,44.694423]],[[-73.258706,44.804684],[-73.259556,44.806988],[-73.256732,44.811464],[-73.249558,44.817088],[-73.244914,44.812088],[-73.249212,44.808995],[-73.258706,44.804684]],[[-73.251287,44.824685],[-73.250656,44.821647],[-73.252251,44.821748],[-73.251287,44.824685]],[[-73.348657,44.678485],[-73.347832,44.681565],[-73.349615,44.68692],[-73.348313,44.689766],[-73.350799,44.691879],[-73.352471,44.696333],[-73.351435,44.70076],[-73.347661,44.702934],[-73.348405,44.704516],[-73.344541,44.708132],[-73.342896,44.71775],[-73.339751,44.721526],[-73.336777,44.731425],[-73.327987,44.744679],[-73.325426,44.742107],[-73.32218,44.742186],[-73.318275,44.74467],[-73.316135,44.744815],[-73.315853,44.750053],[-73.312609,44.748256],[-73.311655,44.750861],[-73.306807,44.75276],[-73.303441,44.750784],[-73.301464,44.747484],[-73.295481,44.745499],[-73.292397,44.746313],[-73.28897,44.749678],[-73.290068,44.753192],[-73.288938,44.763538],[-73.283963,44.768789],[-73.280201,44.768382],[-73.277169,44.770092],[-73.272918,44.76927],[-73.27481,44.765994],[-73.275625,44.761751],[-73.272284,44.760111],[-73.27262,44.755638],[-73.269325,44.752968],[-73.265524,44.752453],[-73.262016,44.750023],[-73.261797,44.744141],[-73.257247,44.743358],[-73.254385,44.741025],[-73.253989,44.737743],[-73.25771,44.734369],[-73.25447,44.732412],[-73.256269,44.730774],[-73.259912,44.73042],[-73.260861,44.727504],[-73.263761,44.728786],[-73.263845,44.730714],[-73.26696,44.730077],[-73.269383,44.723716],[-73.274921,44.722843],[-73.275395,44.725159],[-73.280979,44.725086],[-73.283909,44.722596],[-73.285406,44.718864],[-73.282614,44.71483],[-73.286528,44.709649],[-73.282425,44.706959],[-73.286826,44.702335],[-73.288715,44.697984],[-73.291067,44.696277],[-73.291324,44.692189],[-73.288007,44.689799],[-73.288807,44.687763],[-73.297416,44.680172],[-73.295564,44.678466],[-73.296437,44.674374],[-73.29872,44.672652],[-73.302184,44.674041],[-73.30494,44.669783],[-73.309416,44.668467],[-73.314965,44.669333],[-73.320316,44.667881],[-73.319343,44.660629],[-73.317649,44.658817],[-73.318859,44.655706],[-73.317717,44.653781],[-73.312819,44.650459],[-73.313757,44.646877],[-73.310457,44.652634],[-73.310042,44.655054],[-73.305789,44.656877],[-73.305489,44.653866],[-73.300289,44.650314],[-73.292904,44.65058],[-73.291399,44.652923],[-73.290783,44.65795],[-73.287878,44.663898],[-73.284406,44.668954],[-73.28299,44.669149],[-73.275652,44.663214],[-73.276868,44.6605],[-73.274269,44.655226],[-73.275949,44.650665],[-73.27161,44.648794],[-73.269901,44.649889],[-73.266279,44.647183],[-73.26659,44.643173],[-73.263951,44.640702],[-73.264407,44.638076],[-73.266821,44.636366],[-73.262321,44.633314],[-73.265545,44.633398],[-73.268421,44.631079],[-73.273576,44.629492],[-73.27503,44.626232],[-73.273286,44.620485],[-73.276595,44.612689],[-73.275824,44.61119],[-73.280029,44.609514],[-73.282817,44.610447],[-73.285398,44.608856],[-73.288863,44.609493],[-73.291203,44.61272],[-73.29589,44.611345],[-73.296882,44.607592],[-73.295908,44.60377],[-73.300118,44.597058],[-73.305486,44.595346],[-73.310569,44.598563],[-73.31209,44.606292],[-73.316989,44.60992],[-73.319939,44.610812],[-73.32057,44.620393],[-73.323682,44.622068],[-73.335826,44.622821],[-73.342665,44.622255],[-73.346328,44.619513],[-73.348924,44.621886],[-73.348593,44.63024],[-73.345363,44.629946],[-73.347474,44.632646],[-73.34271,44.632703],[-73.347181,44.634568],[-73.347545,44.636014],[-73.344507,44.637397],[-73.347523,44.638157],[-73.349892,44.640679],[-73.346166,44.641801],[-73.345686,44.647615],[-73.343143,44.647722],[-73.342768,44.649791],[-73.348502,44.65387],[-73.348756,44.658753],[-73.350414,44.661581],[-73.349639,44.664073],[-73.345227,44.666773],[-73.349444,44.672073],[-73.348657,44.678485]],[[-73.276264,44.44924],[-73.278634,44.451549],[-73.275335,44.450468],[-73.276264,44.44924]],[[-73.295754,44.28123],[-73.298586,44.281785],[-73.296055,44.284277],[-73.292945,44.283587],[-73.295754,44.28123]],[[-73.312064,44.561185],[-73.309933,44.560312],[-73.312746,44.559201],[-73.312064,44.561185]],[[-73.336532,44.838957],[-73.333258,44.837038],[-73.335425,44.83611],[-73.337634,44.832181],[-73.344415,44.828773],[-73.34701,44.828527],[-73.351907,44.830507],[-73.354322,44.832765],[-73.360063,44.834225],[-73.356878,44.838041],[-73.357428,44.840785],[-73.367182,44.848082],[-73.361161,44.852663],[-73.359147,44.860723],[-73.36006,44.86444],[-73.358227,44.869072],[-73.358977,44.871307],[-73.356958,44.878862],[-73.354377,44.885644],[-73.34865,44.895864],[-73.349216,44.90054],[-73.347001,44.901944],[-73.344129,44.906621],[-73.337556,44.909949],[-73.33419,44.905329],[-73.331918,44.904522],[-73.324507,44.904582],[-73.322495,44.901991],[-73.320099,44.902505],[-73.319773,44.899643],[-73.315188,44.895749],[-73.316222,44.893248],[-73.322295,44.884453],[-73.322928,44.881527],[-73.321075,44.878507],[-73.322869,44.874199],[-73.328137,44.869465],[-73.327358,44.86745],[-73.321942,44.867078],[-73.322774,44.862067],[-73.325142,44.85892],[-73.330849,44.855618],[-73.332199,44.85246],[-73.328126,44.850767],[-73.332065,44.844928],[-73.337035,44.841517],[-73.336532,44.838957]],[[-73.341744,44.595613],[-73.338956,44.595397],[-73.338903,44.597484],[-73.335625,44.594525],[-73.337653,44.589229],[-73.339951,44.588475],[-73.342479,44.593719],[-73.341744,44.595613]],[[-73.357391,44.613159],[-73.352924,44.614247],[-73.35305,44.615757],[-73.34951,44.617786],[-73.351262,44.614943],[-73.34898,44.606871],[-73.350663,44.606216],[-73.357926,44.608459],[-73.359203,44.610561],[-73.357391,44.613159]]]},"properties":{"name":"Vermont"}}
]}